[{"OBJECT_NAME":"FORTE","OBJECT_ID":"1997-047A","EPOCH":"2026-03-09T21:41:12.798240","MEAN_MOTION":14.27898785,"ECCENTRICITY":0.00196357,"INCLINATION":69.9517,"RA_OF_ASC_NODE":238.2652,"ARG_OF_PERICENTER":49.0734,"MEAN_ANOMALY":311.2084,"EPHEMERIS_TYPE":0,"CLASSIFICATION_TYPE":"U","NORAD_CAT_ID":24920,"ELEMENT_SET_NO":999,"REV_AT_EPOCH":48451,"BSTAR":0.0001374801,"MEAN_MOTION_DOT":2.83e-6,"MEAN_MOTION_DDOT":0},{"OBJECT_NAME":"IDEFIX & ARIANE 42P R\/B","OBJECT_ID":"2002-021B","EPOCH":"2026-03-09T18:36:46.968768","MEAN_MOTION":14.31026352,"ECCENTRICITY":0.00115761,"INCLINATION":98.5868,"RA_OF_ASC_NODE":7.3808,"ARG_OF_PERICENTER":182.0346,"MEAN_ANOMALY":178.0792,"EPHEMERIS_TYPE":0,"CLASSIFICATION_TYPE":"U","NORAD_CAT_ID":27422,"ELEMENT_SET_NO":999,"REV_AT_EPOCH":24403,"BSTAR":0.00016191613,"MEAN_MOTION_DOT":3.83e-6,"MEAN_MOTION_DDOT":0}]
